COSMOS 2251 DEB         
1 33996U 93036GF  17345.84560822  .00002454  00000-0  56055-3 0  9995
2 33996  74.1040 273.7432 0079613 236.2004 123.1561 14.54363785461757
